CCSDS_OMM_VERS = 2.0
CREATION_DATE  = 
ORIGINATOR     = 

OBJECT_NAME    = STARLINK-36182
OBJECT_ID      = 2025-304A
CENTER_NAME    = EARTH
REF_FRAME      = TEME
TIME_SYSTEM    = UTC
MEAN_ELEMENT_THEORY = SGP/SGP4

EPOCH          = 2026-01-04T12:00:02.998944
MEAN_MOTION    = 15.54444766
ECCENTRICITY   = .0003245
INCLINATION    = 69.9996
RA_OF_ASC_NODE = 343.3061
ARG_OF_PERICENTER = 269.6362
MEAN_ANOMALY   = 135.3598

EPHEMERIS_TYPE = 0
CLASSIFICATION_TYPE = U
NORAD_CAT_ID   = 67192
ELEMENT_SET_NO = 999
REV_AT_EPOCH   = 409
BSTAR          = -.37294E-1
MEAN_MOTION_DOT = -.2179661E-1
MEAN_MOTION_DDOT = 0

CCSDS_OMM_VERS = 2.0
CREATION_DATE  = 
ORIGINATOR     = 

OBJECT_NAME    = STARLINK-36279
OBJECT_ID      = 2025-304B
CENTER_NAME    = EARTH
REF_FRAME      = TEME
TIME_SYSTEM    = UTC
MEAN_ELEMENT_THEORY = SGP/SGP4

EPOCH          = 2026-01-04T12:00:02.998944
MEAN_MOTION    = 15.54437823
ECCENTRICITY   = .0003241
INCLINATION    = 69.9995
RA_OF_ASC_NODE = 343.3038
ARG_OF_PERICENTER = 268.2314
MEAN_ANOMALY   = 138.6832

EPHEMERIS_TYPE = 0
CLASSIFICATION_TYPE = U
NORAD_CAT_ID   = 67193
ELEMENT_SET_NO = 999
REV_AT_EPOCH   = 412
BSTAR          = -.37132E-1
MEAN_MOTION_DOT = -.2170801E-1
MEAN_MOTION_DDOT = 0

CCSDS_OMM_VERS = 2.0
CREATION_DATE  = 
ORIGINATOR     = 

OBJECT_NAME    = STARLINK-36284
OBJECT_ID      = 2025-304C
CENTER_NAME    = EARTH
REF_FRAME      = TEME
TIME_SYSTEM    = UTC
MEAN_ELEMENT_THEORY = SGP/SGP4

EPOCH          = 2026-01-04T12:00:02.998944
MEAN_MOTION    = 15.54453598
ECCENTRICITY   = .0003182
INCLINATION    = 69.9994
RA_OF_ASC_NODE = 343.3016
ARG_OF_PERICENTER = 271.1200
MEAN_ANOMALY   = 137.7088

EPHEMERIS_TYPE = 0
CLASSIFICATION_TYPE = U
NORAD_CAT_ID   = 67194
ELEMENT_SET_NO = 999
REV_AT_EPOCH   = 412
BSTAR          = -.37595E-1
MEAN_MOTION_DOT = -.2195852E-1
MEAN_MOTION_DDOT = 0

CCSDS_OMM_VERS = 2.0
CREATION_DATE  = 
ORIGINATOR     = 

OBJECT_NAME    = STARLINK-36291
OBJECT_ID      = 2025-304D
CENTER_NAME    = EARTH
REF_FRAME      = TEME
TIME_SYSTEM    = UTC
MEAN_ELEMENT_THEORY = SGP/SGP4

EPOCH          = 2026-01-04T12:00:02.998944
MEAN_MOTION    = 15.54411081
ECCENTRICITY   = .0003454
INCLINATION    = 69.9994
RA_OF_ASC_NODE = 343.2989
ARG_OF_PERICENTER = 271.3138
MEAN_ANOMALY   = 139.4386

EPHEMERIS_TYPE = 0
CLASSIFICATION_TYPE = U
NORAD_CAT_ID   = 67195
ELEMENT_SET_NO = 999
REV_AT_EPOCH   = 412
BSTAR          = -.36079E-1
MEAN_MOTION_DOT = -.2114332E-1
MEAN_MOTION_DDOT = 0

CCSDS_OMM_VERS = 2.0
CREATION_DATE  = 
ORIGINATOR     = 

OBJECT_NAME    = STARLINK-36239
OBJECT_ID      = 2025-304E
CENTER_NAME    = EARTH
REF_FRAME      = TEME
TIME_SYSTEM    = UTC
MEAN_ELEMENT_THEORY = SGP/SGP4

EPOCH          = 2026-01-04T12:00:02.998944
MEAN_MOTION    = 15.54404055
ECCENTRICITY   = .00036
INCLINATION    = 69.9993
RA_OF_ASC_NODE = 343.2966
ARG_OF_PERICENTER = 274.0177
MEAN_ANOMALY   = 138.6555

EPHEMERIS_TYPE = 0
CLASSIFICATION_TYPE = U
NORAD_CAT_ID   = 67196
ELEMENT_SET_NO = 999
REV_AT_EPOCH   = 412
BSTAR          = -.3593E-1
MEAN_MOTION_DOT = -.2106228E-1
MEAN_MOTION_DDOT = 0

CCSDS_OMM_VERS = 2.0
CREATION_DATE  = 
ORIGINATOR     = 

OBJECT_NAME    = STARLINK-36283
OBJECT_ID      = 2025-304F
CENTER_NAME    = EARTH
REF_FRAME      = TEME
TIME_SYSTEM    = UTC
MEAN_ELEMENT_THEORY = SGP/SGP4

EPOCH          = 2026-01-04T12:00:02.998944
MEAN_MOTION    = 15.54461946
ECCENTRICITY   = .0003099
INCLINATION    = 69.9993
RA_OF_ASC_NODE = 343.2924
ARG_OF_PERICENTER = 268.5471
MEAN_ANOMALY   = 147.9450

EPHEMERIS_TYPE = 0
CLASSIFICATION_TYPE = U
NORAD_CAT_ID   = 67197
ELEMENT_SET_NO = 999
REV_AT_EPOCH   = 412
BSTAR          = -.37881E-1
MEAN_MOTION_DOT = -.2211137E-1
MEAN_MOTION_DDOT = 0

CCSDS_OMM_VERS = 2.0
CREATION_DATE  = 
ORIGINATOR     = 

OBJECT_NAME    = STARLINK-36267
OBJECT_ID      = 2025-304G
CENTER_NAME    = EARTH
REF_FRAME      = TEME
TIME_SYSTEM    = UTC
MEAN_ELEMENT_THEORY = SGP/SGP4

EPOCH          = 2026-01-04T12:00:02.998944
MEAN_MOTION    = 15.54441984
ECCENTRICITY   = .0003216
INCLINATION    = 69.9993
RA_OF_ASC_NODE = 343.2947
ARG_OF_PERICENTER = 268.6651
MEAN_ANOMALY   = 145.9157

EPHEMERIS_TYPE = 0
CLASSIFICATION_TYPE = U
NORAD_CAT_ID   = 67198
ELEMENT_SET_NO = 999
REV_AT_EPOCH   = 409
BSTAR          = -.37327E-1
MEAN_MOTION_DOT = -.2181192E-1
MEAN_MOTION_DDOT = 0

CCSDS_OMM_VERS = 2.0
CREATION_DATE  = 
ORIGINATOR     = 

OBJECT_NAME    = STARLINK-36268
OBJECT_ID      = 2025-304H
CENTER_NAME    = EARTH
REF_FRAME      = TEME
TIME_SYSTEM    = UTC
MEAN_ELEMENT_THEORY = SGP/SGP4

EPOCH          = 2026-01-04T12:00:02.998944
MEAN_MOTION    = 15.54450990
ECCENTRICITY   = .0003159
INCLINATION    = 69.9993
RA_OF_ASC_NODE = 343.2901
ARG_OF_PERICENTER = 270.8701
MEAN_ANOMALY   = 147.5414

EPHEMERIS_TYPE = 0
CLASSIFICATION_TYPE = U
NORAD_CAT_ID   = 67199
ELEMENT_SET_NO = 999
REV_AT_EPOCH   = 412
BSTAR          = -.37585E-1
MEAN_MOTION_DOT = -.2195108E-1
MEAN_MOTION_DDOT = 0

CCSDS_OMM_VERS = 2.0
CREATION_DATE  = 
ORIGINATOR     = 

OBJECT_NAME    = STARLINK-36270
OBJECT_ID      = 2025-304J
CENTER_NAME    = EARTH
REF_FRAME      = TEME
TIME_SYSTEM    = UTC
MEAN_ELEMENT_THEORY = SGP/SGP4

EPOCH          = 2026-01-04T12:00:02.998944
MEAN_MOTION    = 15.54379272
ECCENTRICITY   = .0003187
INCLINATION    = 69.9995
RA_OF_ASC_NODE = 343.2870
ARG_OF_PERICENTER = 275.3556
MEAN_ANOMALY   = 144.9872

EPHEMERIS_TYPE = 0
CLASSIFICATION_TYPE = U
NORAD_CAT_ID   = 67200
ELEMENT_SET_NO = 999
REV_AT_EPOCH   = 412
BSTAR          = -.35172E-1
MEAN_MOTION_DOT = -.2064519E-1
MEAN_MOTION_DDOT = 0

CCSDS_OMM_VERS = 2.0
CREATION_DATE  = 
ORIGINATOR     = 

OBJECT_NAME    = STARLINK-36262
OBJECT_ID      = 2025-304K
CENTER_NAME    = EARTH
REF_FRAME      = TEME
TIME_SYSTEM    = UTC
MEAN_ELEMENT_THEORY = SGP/SGP4

EPOCH          = 2026-01-04T12:00:02.998944
MEAN_MOTION    = 15.54401846
ECCENTRICITY   = .0003592
INCLINATION    = 69.9995
RA_OF_ASC_NODE = 343.2852
ARG_OF_PERICENTER = 273.7358
MEAN_ANOMALY   = 148.5211

EPHEMERIS_TYPE = 0
CLASSIFICATION_TYPE = U
NORAD_CAT_ID   = 67201
ELEMENT_SET_NO = 999
REV_AT_EPOCH   = 412
BSTAR          = -.35919E-1
MEAN_MOTION_DOT = -.2105463E-1
MEAN_MOTION_DDOT = 0

CCSDS_OMM_VERS = 2.0
CREATION_DATE  = 
ORIGINATOR     = 

OBJECT_NAME    = STARLINK-36263
OBJECT_ID      = 2025-304L
CENTER_NAME    = EARTH
REF_FRAME      = TEME
TIME_SYSTEM    = UTC
MEAN_ELEMENT_THEORY = SGP/SGP4

EPOCH          = 2026-01-04T12:00:02.998944
MEAN_MOTION    = 15.54381770
ECCENTRICITY   = .0003305
INCLINATION    = 69.9995
RA_OF_ASC_NODE = 343.2826
ARG_OF_PERICENTER = 274.0060
MEAN_ANOMALY   = 150.1702

EPHEMERIS_TYPE = 0
CLASSIFICATION_TYPE = U
NORAD_CAT_ID   = 67202
ELEMENT_SET_NO = 999
REV_AT_EPOCH   = 412
BSTAR          = -.35222E-1
MEAN_MOTION_DOT = -.2067439E-1
MEAN_MOTION_DDOT = 0

CCSDS_OMM_VERS = 2.0
CREATION_DATE  = 
ORIGINATOR     = 

OBJECT_NAME    = STARLINK-36224
OBJECT_ID      = 2025-304M
CENTER_NAME    = EARTH
REF_FRAME      = TEME
TIME_SYSTEM    = UTC
MEAN_ELEMENT_THEORY = SGP/SGP4

EPOCH          = 2026-01-04T12:00:02.998944
MEAN_MOTION    = 15.54382248
ECCENTRICITY   = .0003339
INCLINATION    = 69.9996
RA_OF_ASC_NODE = 343.2801
ARG_OF_PERICENTER = 274.1870
MEAN_ANOMALY   = 151.9070

EPHEMERIS_TYPE = 0
CLASSIFICATION_TYPE = U
NORAD_CAT_ID   = 67203
ELEMENT_SET_NO = 999
REV_AT_EPOCH   = 412
BSTAR          = -.3527E-1
MEAN_MOTION_DOT = -.2070009E-1
MEAN_MOTION_DDOT = 0

