STARLINK-36182          
1 67192U 25304A   26004.50003471 -.02179661  00000+0 -37294-1 0  9990
2 67192  69.9996 343.3061 0003245 269.6362 135.3598 15.54444766  4096
STARLINK-36279          
1 67193U 25304B   26004.50003471 -.02170801  00000+0 -37132-1 0  9999
2 67193  69.9995 343.3038 0003241 268.2314 138.6832 15.54437823  4125
STARLINK-36284          
1 67194U 25304C   26004.50003471 -.02195852  00000+0 -37595-1 0  9996
2 67194  69.9994 343.3016 0003182 271.1200 137.7088 15.54453598  4122
STARLINK-36291          
1 67195U 25304D   26004.50003471 -.02114332  00000+0 -36079-1 0  9997
2 67195  69.9994 343.2989 0003454 271.3138 139.4386 15.54411081  4126
STARLINK-36239          
1 67196U 25304E   26004.50003471 -.02106228  00000+0 -35930-1 0  9998
2 67196  69.9993 343.2966 0003600 274.0177 138.6555 15.54404055  4129
STARLINK-36283          
1 67197U 25304F   26004.50003471 -.02211137  00000+0 -37881-1 0  9992
2 67197  69.9993 343.2924 0003099 268.5471 147.9450 15.54461946  4120
STARLINK-36267          
1 67198U 25304G   26004.50003471 -.02181192  00000+0 -37327-1 0  9995
2 67198  69.9993 343.2947 0003216 268.6651 145.9157 15.54441984  4096
STARLINK-36268          
1 67199U 25304H   26004.50003471 -.02195108  00000+0 -37585-1 0  9994
2 67199  69.9993 343.2901 0003159 270.8701 147.5414 15.54450990  4129
STARLINK-36270          
1 67200U 25304J   26004.50003471 -.02064519  00000+0 -35172-1 0  9998
2 67200  69.9995 343.2870 0003187 275.3556 144.9872 15.54379272  4120
STARLINK-36262          
1 67201U 25304K   26004.50003471 -.02105463  00000+0 -35919-1 0  9992
2 67201  69.9995 343.2852 0003592 273.7358 148.5211 15.54401846  4123
STARLINK-36263          
1 67202U 25304L   26004.50003471 -.02067439  00000+0 -35222-1 0  9990
2 67202  69.9995 343.2826 0003305 274.0060 150.1702 15.54381770  4128
STARLINK-36224          
1 67203U 25304M   26004.50003471 -.02070009  00000+0 -35270-1 0  9991
2 67203  69.9996 343.2801 0003339 274.1870 151.9070 15.54382248  4128
